{
  "type": "FeatureCollection",
  "features": [
    {
      "type": "Feature",
      "properties": {
        "norad_id": 43823,
        "name": "GEO-KOMPSAT-2A",
        "group": "weather",
        "lat": -0.010093777485375006,
        "lon": -80.58938316064928,
        "alt_km": 35786.30154911773,
        "timestamp": "2025-12-09T04:51:47.151667+00:00",
        "meta_object_name": "GEO-KOMPSAT-2A",
        "meta_object_id": "2018-100A",
        "meta_epoch": "2025-12-08T09:04:40.751616",
        "meta_mean_motion": 1.00270893,
        "meta_eccentricity": 1.774e-05,
        "meta_inclination": 0.0576,
        "meta_ra_of_asc_node": 113.8278,
        "meta_arg_of_pericenter": 87.1447,
        "meta_mean_anomaly": 140.8536,
        "meta_ephemeris_type": 0,
        "meta_classification_type": "U",
        "meta_norad_cat_id": 43823,
        "meta_element_set_no": 999,
        "meta_rev_at_epoch": 2571,
        "meta_bstar": 0,
        "meta_mean_motion_dot": -3.41e-06,
        "meta_mean_motion_ddot": 0,
        "tle_line1": "1 43823U 18100A   25342.37824944 -.00000341  00000+0  00000+0 0  9994",
        "tle_line2": "2 43823   0.0576 113.8278 0000177  87.1447 140.8536  1.00270893 25718"
      },
      "geometry": {
        "type": "Point",
        "coordinates": [
          -80.58938316064928,
          -0.010093777485375006
        ]
      }
    },
    {
      "type": "Feature",
      "properties": {
        "norad_id": 44387,
        "name": "METEOR-M2 2",
        "group": "weather",
        "lat": -67.19125919827563,
        "lon": 121.01977044034483,
        "alt_km": 818.1587134563924,
        "timestamp": "2025-12-09T04:51:47.151679+00:00",
        "meta_object_name": "METEOR-M2 2",
        "meta_object_id": "2019-038A",
        "meta_epoch": "2025-12-08T20:57:15.114240",
        "meta_mean_motion": 14.24288154,
        "meta_eccentricity": 0.0001108,
        "meta_inclination": 98.8967,
        "meta_ra_of_asc_node": 322.554,
        "meta_arg_of_pericenter": 155.7051,
        "meta_mean_anomaly": 204.418,
        "meta_ephemeris_type": 0,
        "meta_classification_type": "U",
        "meta_norad_cat_id": 44387,
        "meta_element_set_no": 999,
        "meta_rev_at_epoch": 33420,
        "meta_bstar": 4.7467e-05,
        "meta_mean_motion_dot": 6.4e-07,
        "meta_mean_motion_ddot": 0,
        "tle_line1": "1 44387U 19038A   25342.87309160  .00000064  00000+0  47467-4 0  9998",
        "tle_line2": "2 44387  98.8967 322.5540 0001108 155.7051 204.4180 14.24288154334200"
      },
      "geometry": {
        "type": "Point",
        "coordinates": [
          121.01977044034483,
          -67.19125919827563
        ]
      }
    },
    {
      "type": "Feature",
      "properties": {
        "norad_id": 47719,
        "name": "ARKTIKA-M 1",
        "group": "weather",
        "lat": 55.72901752713333,
        "lon": 132.39186500582449,
        "alt_km": 32498.872312553565,
        "timestamp": "2025-12-09T04:51:47.151692+00:00",
        "meta_object_name": "ARKTIKA-M 1",
        "meta_object_id": "2021-016A",
        "meta_epoch": "2025-12-01T02:41:41.634816",
        "meta_mean_motion": 2.00613156,
        "meta_eccentricity": 0.71974708,
        "meta_inclination": 63.1756,
        "meta_ra_of_asc_node": 85.6045,
        "meta_arg_of_pericenter": 269.084,
        "meta_mean_anomaly": 15.7076,
        "meta_ephemeris_type": 0,
        "meta_classification_type": "U",
        "meta_norad_cat_id": 47719,
        "meta_element_set_no": 999,
        "meta_rev_at_epoch": 3481,
        "meta_bstar": 0,
        "meta_mean_motion_dot": -1.2e-07,
        "meta_mean_motion_ddot": 0,
        "tle_line1": "1 47719U 21016A   25335.11228744 -.00000012  00000+0  00000+0 0  9997",
        "tle_line2": "2 47719  63.1756  85.6045 7197470 269.0840  15.7076  2.00613156 34816"
      },
      "geometry": {
        "type": "Point",
        "coordinates": [
          132.39186500582449,
          55.72901752713333
        ]
      }
    },
    {
      "type": "Feature",
      "properties": {
        "norad_id": 49008,
        "name": "FENGYUN 3E",
        "group": "weather",
        "lat": -79.56024989945766,
        "lon": 107.08766045111241,
        "alt_km": 832.7238564731788,
        "timestamp": "2025-12-09T04:51:47.151715+00:00",
        "meta_object_name": "FENGYUN 3E",
        "meta_object_id": "2021-062A",
        "meta_epoch": "2025-12-08T20:51:25.632288",
        "meta_mean_motion": 14.19877509,
        "meta_eccentricity": 6e-05,
        "meta_inclination": 98.747,
        "meta_ra_of_asc_node": 343.4356,
        "meta_arg_of_pericenter": 297.3575,
        "meta_mean_anomaly": 62.754,
        "meta_ephemeris_type": 0,
        "meta_classification_type": "U",
        "meta_norad_cat_id": 49008,
        "meta_element_set_no": 999,
        "meta_rev_at_epoch": 22957,
        "meta_bstar": -0.00014496,
        "meta_mean_motion_dot": -3.51e-06,
        "meta_mean_motion_ddot": 0,
        "tle_line1": "1 49008U 21062A   25342.86904667 -.00000351  00000+0 -14496-3 0  9991",
        "tle_line2": "2 49008  98.7470 343.4356 0000600 297.3575  62.7540 14.19877509229570"
      },
      "geometry": {
        "type": "Point",
        "coordinates": [
          107.08766045111241,
          -79.56024989945766
        ]
      }
    },
    {
      "type": "Feature",
      "properties": {
        "norad_id": 51850,
        "name": "GOES 18",
        "group": "weather",
        "lat": 0.0015324796008301445,
        "lon": 14.146974369897526,
        "alt_km": 35785.62587687071,
        "timestamp": "2025-12-09T04:51:47.151727+00:00",
        "meta_object_name": "GOES 18",
        "meta_object_id": "2022-021A",
        "meta_epoch": "2025-12-08T18:05:20.073120",
        "meta_mean_motion": 1.00270752,
        "meta_eccentricity": 7.19e-05,
        "meta_inclination": 0.0115,
        "meta_ra_of_asc_node": 94.7936,
        "meta_arg_of_pericenter": 202.9599,
        "meta_mean_anomaly": 274.3353,
        "meta_ephemeris_type": 0,
        "meta_classification_type": "U",
        "meta_norad_cat_id": 51850,
        "meta_element_set_no": 999,
        "meta_rev_at_epoch": 468,
        "meta_bstar": 0,
        "meta_mean_motion_dot": 9.9e-07,
        "meta_mean_motion_ddot": 0,
        "tle_line1": "1 51850U 22021A   25342.75370455  .00000099  00000+0  00000+0 0  9994",
        "tle_line2": "2 51850   0.0115  94.7936 0000719 202.9599 274.3353  1.00270752  4688"
      },
      "geometry": {
        "type": "Point",
        "coordinates": [
          14.146974369897526,
          0.0015324796008301445
        ]
      }
    },
    {
      "type": "Feature",
      "properties": {
        "norad_id": 54234,
        "name": "NOAA 21 (JPSS-2)",
        "group": "weather",
        "lat": -79.83839580674145,
        "lon": -21.258231669032565,
        "alt_km": 835.3732670337804,
        "timestamp": "2025-12-09T04:51:47.151739+00:00",
        "meta_object_name": "NOAA 21 (JPSS-2)",
        "meta_object_id": "2022-150A",
        "meta_epoch": "2025-12-08T19:06:43.826112",
        "meta_mean_motion": 14.19522752,
        "meta_eccentricity": 0.0002372,
        "meta_inclination": 98.7457,
        "meta_ra_of_asc_node": 279.1539,
        "meta_arg_of_pericenter": 45.7005,
        "meta_mean_anomaly": 314.4365,
        "meta_ephemeris_type": 0,
        "meta_classification_type": "U",
        "meta_norad_cat_id": 54234,
        "meta_element_set_no": 999,
        "meta_rev_at_epoch": 15953,
        "meta_bstar": 0.00013534,
        "meta_mean_motion_dot": 2.41e-06,
        "meta_mean_motion_ddot": 0,
        "tle_line1": "1 54234U 22150A   25342.79634058  .00000241  00000+0  13534-3 0  9991",
        "tle_line2": "2 54234  98.7457 279.1539 0002372  45.7005 314.4365 14.19522752159538"
      },
      "geometry": {
        "type": "Point",
        "coordinates": [
          -21.258231669032565,
          -79.83839580674145
        ]
      }
    },
    {
      "type": "Feature",
      "properties": {
        "norad_id": 54743,
        "name": "METEOSAT-12 (MTG-I1)",
        "group": "weather",
        "lat": 0.6339865230917991,
        "lon": 150.9040106333603,
        "alt_km": 35786.55452584003,
        "timestamp": "2025-12-09T04:51:47.151751+00:00",
        "meta_object_name": "METEOSAT-12 (MTG-I1)",
        "meta_object_id": "2022-170C",
        "meta_epoch": "2025-12-08T18:44:23.832096",
        "meta_mean_motion": 1.00275009,
        "meta_eccentricity": 0.0001468,
        "meta_inclination": 0.726,
        "meta_ra_of_asc_node": 30.9723,
        "meta_arg_of_pericenter": 223.6162,
        "meta_mean_anomaly": 104.0649,
        "meta_ephemeris_type": 0,
        "meta_classification_type": "U",
        "meta_norad_cat_id": 54743,
        "meta_element_set_no": 999,
        "meta_rev_at_epoch": 1106,
        "meta_bstar": 0,
        "meta_mean_motion_dot": -4e-08,
        "meta_mean_motion_ddot": 0,
        "tle_line1": "1 54743U 22170C   25342.78083139 -.00000004  00000+0  00000+0 0  9993",
        "tle_line2": "2 54743   0.7260  30.9723 0001468 223.6162 104.0649  1.00275009 11061"
      },
      "geometry": {
        "type": "Point",
        "coordinates": [
          150.9040106333603,
          0.6339865230917991
        ]
      }
    }
  ]
}